      2.10          N: GNSS NAV DATA                        RINEX VERSION / TYPE
fic2rin                                 12/04/2021 00:17:37 PGM / RUN BY / DATE
                                                            END OF HEADER
 5 21 12  3 22  0  0.0-6.319070234895e-05-1.250555214938e-12 0.000000000000e+00
    8.100000000000e+01-2.762500000000e+01 4.314108271354e-09-4.428453153135e-02
   -1.307576894760e-06 5.942570627667e-03 1.148506999016e-05 5.153626342773e+03
    5.112000000000e+05 1.862645149231e-09 4.600034440527e-01 8.754432201385e-08
    9.588379316771e-01 1.577812500000e+02 1.017188796511e+00-7.825683113970e-09
    7.157440993290e-10 1.000000000000e+00 2.186000000000e+03 0.000000000000e+00
    2.400000000000e+00 0.000000000000e+00-1.117587089539e-08 8.100000000000e+01
    5.040000000000e+05 4.000000000000e+00
 4 21 12  3 22  0  0.0-2.001747488976e-04 1.136868377216e-12 0.000000000000e+00
    9.800000000000e+01-3.125000000000e+00 5.065925301837e-09-8.210465511530e-01
   -2.346932888031e-07 1.562135992572e-03 4.822388291359e-06 5.153657514572e+03
    5.112000000000e+05 2.607703208923e-08 1.580626739837e+00-9.313225746155e-09
    9.603251122527e-01 2.837500000000e+02-3.141170262327e+00-8.191412633787e-09
    2.500104139373e-12 1.000000000000e+00 2.186000000000e+03 0.000000000000e+00
    2.400000000000e+00 0.000000000000e+00-4.190951585770e-09 6.100000000000e+02
    5.040000000000e+05 4.000000000000e+00
20 21 12  3 22  0  0.0 5.178120918572e-04-2.273736754432e-13 0.000000000000e+00
    4.000000000000e+00-4.584375000000e+01 4.633407285726e-09-1.556545471247e+00
   -2.339482307434e-06 5.461692926474e-03 1.187436282635e-05 5.153701225281e+03
    5.112000000000e+05 2.235174179077e-08 3.473906055274e-01-7.636845111847e-08
    9.410538890489e-01 1.398437500000e+02 3.054535794316e+00-7.901757711354e-09
    7.332448283046e-10 1.000000000000e+00 2.186000000000e+03 0.000000000000e+00
    2.400000000000e+00 0.000000000000e+00-8.381903171539e-09 4.000000000000e+00
    5.040000000000e+05 4.000000000000e+00
24 21 12  3 22  0  0.0 2.724593505263e-04 2.728484105319e-12 0.000000000000e+00
    9.000000000000e+00-1.715625000000e+01 5.098426655649e-09-2.350581987426e+00
   -1.074746251106e-06 1.210561941843e-02 1.069530844688e-05 5.153702150345e+03
    5.112000000000e+05 8.754432201385e-08 2.519085707723e+00-1.396983861923e-07
    9.346296042631e-01 1.570625000000e+02 7.855069664667e-01-8.018191132702e-09
   -5.843100531448e-10 1.000000000000e+00 2.186000000000e+03 0.000000000000e+00
    2.400000000000e+00 0.000000000000e+00 2.328306436539e-09 9.000000000000e+00
    5.040000000000e+05 4.000000000000e+00
12 21 12  3 22  0  0.0-1.355111598969e-04-5.570655048359e-12 0.000000000000e+00
    8.200000000000e+01 1.609375000000e+02 4.102670892710e-09 2.277917342549e+00
    8.186325430870e-06 8.410515962169e-03 8.219853043556e-06 5.153649507523e+03
    5.112000000000e+05 1.303851604462e-08-2.571060809837e+00-1.583248376846e-07
    9.716071832934e-01 2.215937500000e+02 1.229317566331e+00-7.793538917893e-09
    2.053656971627e-10 1.000000000000e+00 2.186000000000e+03 0.000000000000e+00
    2.400000000000e+00 0.000000000000e+00-1.257285475731e-08 8.200000000000e+01
    5.040000000000e+05 4.000000000000e+00
10 21 12  3 22  0  0.0-2.603731118143e-04-8.753886504564e-12 0.000000000000e+00
    4.500000000000e+01-7.750000000000e+00 4.110171205129e-09 1.632556955236e+00
   -3.390014171600e-07 7.289200904779e-03 1.171045005322e-05 5.153679573059e+03
    5.112000000000e+05-1.620501279831e-07 4.965920404803e-01 5.401670932770e-08
    9.716683449725e-01 1.599687500000e+02-2.566188093040e+00-7.730679156674e-09
    6.682421206809e-10 1.000000000000e+00 2.186000000000e+03 0.000000000000e+00
    2.400000000000e+00 0.000000000000e+00 2.328306436539e-09 4.500000000000e+01
    5.040000000000e+05 4.000000000000e+00
 6 21 12  3 22  0  0.0 1.334794797003e-04 9.777068044059e-12 0.000000000000e+00
    5.600000000000e+01-1.803125000000e+02 3.672652980738e-09-2.278870243499e+00
   -9.275972843170e-06 2.453373628668e-03 8.147209882736e-06 5.153633031845e+03
    5.112000000000e+05 8.754432201385e-08-5.440171791734e-01 5.215406417847e-08
    9.858767700447e-01 2.378437500000e+02-1.036972588173e+00-7.733893576282e-09
   -2.867976605595e-10 1.000000000000e+00 2.186000000000e+03 0.000000000000e+00
    2.400000000000e+00 0.000000000000e+00 4.190951585770e-09 5.600000000000e+01
    5.040000000000e+05 4.000000000000e+00
 8 21 12  3 22  0  0.0-4.668347537518e-05-1.591615728103e-12 0.000000000000e+00
    1.240000000000e+02-5.562500000000e+00 4.811271837355e-09-3.481992700687e-01
   -3.501772880554e-07 6.866936339065e-03-1.264736056328e-06 5.153685373306e+03
    5.112000000000e+05 7.636845111847e-08-1.614465028332e+00-5.029141902924e-08
    9.652568109806e-01 4.059375000000e+02 5.943693667842e-02-8.736792493905e-09
   -9.857553463812e-11 1.000000000000e+00 2.186000000000e+03 0.000000000000e+00
    2.400000000000e+00 0.000000000000e+00 5.122274160385e-09 1.240000000000e+02
    5.040000000000e+05 4.000000000000e+00
13 21 12  3 22  0  0.0 2.240329049528e-04 5.798028723802e-12 0.000000000000e+00
    9.100000000000e+01-8.093750000000e+00 4.965206820794e-09-1.002398405071e+00
   -3.073364496231e-07 5.752608762123e-03 4.908069968224e-06 5.153662656784e+03
    5.112000000000e+05 5.774199962616e-08 1.679985435234e+00 7.450580596924e-08
    9.678377349436e-01 2.887500000000e+02 9.801789411187e-01-8.173911904812e-09
   -7.750322832055e-11 1.000000000000e+00 2.186000000000e+03 0.000000000000e+00
    2.400000000000e+00 0.000000000000e+00-1.117587089539e-08 9.100000000000e+01
    5.040000000000e+05 4.000000000000e+00
11 21 12  3 22  0  0.0 1.592328771949e-05-2.728484105319e-12 0.000000000000e+00
    7.600000000000e+01-1.747187500000e+02 4.177316859157e-09-2.724449495229e-01
   -9.043142199516e-06 3.747708396986e-04 8.706003427505e-06 5.153747137070e+03
    5.112000000000e+05 7.823109626770e-08-4.902935447056e-01-8.940696716309e-08
    9.615753352095e-01 2.163125000000e+02 2.631502518151e+00-7.925330121811e-09
   -2.364384200378e-10 1.000000000000e+00 2.186000000000e+03 0.000000000000e+00
    9.999999999999e+99 6.300000000000e+01-8.847564458847e-09 7.600000000000e+01
    5.040000000000e+05 4.000000000000e+00
31 21 12  3 22  0  0.0-1.532766036689e-04-1.818989403546e-12 0.000000000000e+00
    2.500000000000e+01 1.146875000000e+01 4.511973656099e-09 2.511696496801e+00
    5.830079317093e-07 1.042407494970e-02 1.164525747299e-05 5.153658964157e+03
    5.112000000000e+05-1.806765794754e-07 2.618338234766e+00-2.421438694000e-08
    9.555299783904e-01 1.541875000000e+02 3.437685622662e-01-7.716035689572e-09
   -6.578845463892e-10 1.000000000000e+00 2.186000000000e+03 0.000000000000e+00
    2.400000000000e+00 0.000000000000e+00-1.303851604462e-08 2.500000000000e+01
    5.040000000000e+05 4.000000000000e+00
32 21 12  3 22  0  0.0-3.018695861101e-05-5.115907697473e-12 0.000000000000e+00
    4.900000000000e+01 1.000000000000e+00 5.238789645188e-09 2.723042489878e-01
    1.676380634308e-08 5.239197751507e-03 4.680827260017e-06 5.153734331131e+03
    5.112000000000e+05-1.676380634308e-08 1.539113032201e+00 3.166496753693e-08
    9.571706410163e-01 2.888750000000e+02-2.390375100055e+00-8.406421589773e-09
    1.214336296267e-11 1.000000000000e+00 2.186000000000e+03 0.000000000000e+00
    2.400000000000e+00 0.000000000000e+00 4.656612873077e-10 4.900000000000e+01
    5.040000000000e+05 4.000000000000e+00
27 21 12  3 22  0  0.0-2.267546951771e-04-4.547473508865e-12 0.000000000000e+00
    4.600000000000e+01-1.146875000000e+01 4.690195365463e-09-4.534857373184e-01
   -5.587935447693e-07 9.773058816791e-03-9.704381227493e-07 5.153643823624e+03
    5.112000000000e+05 6.705522537231e-08-1.595626615293e+00 7.823109626770e-08
    9.739145591306e-01 4.015937500000e+02 6.275636714259e-01-8.678575783231e-09
   -1.235765760318e-10 1.000000000000e+00 2.186000000000e+03 0.000000000000e+00
    2.400000000000e+00 0.000000000000e+00 1.862645149231e-09 4.600000000000e+01
    5.040000000000e+05 4.000000000000e+00
15 21 12  3 22  0  0.0-1.018280163407e-04 2.842170943040e-12 0.000000000000e+00
    3.900000000000e+01 1.431250000000e+01 5.765954460862e-09-1.372018754477e+00
    1.031905412674e-06 1.391195168253e-02 4.125759005547e-06 5.153695283890e+03
    5.112000000000e+05 2.495944499969e-07 1.424073272562e+00 1.620501279831e-07
    9.291081110936e-01 2.773750000000e+02 1.061152660788e+00-8.589643507416e-09
    2.960837616486e-10 1.000000000000e+00 2.186000000000e+03 0.000000000000e+00
    2.400000000000e+00 0.000000000000e+00-1.071020960808e-08 3.900000000000e+01
    5.040000000000e+05 4.000000000000e+00
19 21 12  3 22  0  0.0 8.749403059483e-05 5.002220859751e-12 0.000000000000e+00
    3.500000000000e+01-2.028125000000e+01 4.487329772440e-09 1.943261197520e+00
   -1.208856701851e-06 8.935191319324e-03-1.765787601471e-06 5.153669193268e+03
    5.112000000000e+05 1.229345798492e-07-1.488619241435e+00 1.117587089539e-08
    9.789571031614e-01 4.208125000000e+02 1.979573723751e+00-8.446066098269e-09
   -2.282237921513e-10 1.000000000000e+00 2.186000000000e+03 0.000000000000e+00
    2.400000000000e+00 0.000000000000e+00-1.583248376846e-08 3.500000000000e+01
    5.040000000000e+05 4.000000000000e+00
16 21 12  3 22  0  0.0-4.345988854766e-04-6.139089236967e-12 0.000000000000e+00
    9.500000000000e+01 1.606250000000e+02 4.267677765909e-09 4.091872919731e-01
    8.655712008476e-06 1.242421730421e-02 6.537884473801e-06 5.153572416306e+03
    5.112000000000e+05-1.676380634308e-08-2.552401785665e+00 2.346932888031e-07
    9.715781107224e-01 2.578437500000e+02 6.848612571860e-01-8.159625595444e-09
    1.367914121971e-10 1.000000000000e+00 2.186000000000e+03 0.000000000000e+00
    2.400000000000e+00 0.000000000000e+00-1.024454832077e-08 9.500000000000e+01
    5.040000000000e+05 4.000000000000e+00
